QIANFAN-1               
1 60379U 24140A   25362.91276669  .00000135  00000+0  18977-3 0  9993
2 60379  88.9774 297.6075 0017461 162.0546 198.1226 13.50981247 69531
QIANFAN-2               
1 60380U 24140B   25362.86764444  .00000143  00000+0  20182-3 0  9992
2 60380  88.9760 297.4493 0013632 133.3051 226.9240 13.50985051 69586
QIANFAN-3               
1 60381U 24140C   25362.87580500  .00000148  00000+0  21105-3 0  9994
2 60381  88.9752 297.5799 0014354 145.7861 214.4218 13.50985612 69496
QIANFAN-4               
1 60382U 24140D   25362.92509696  .00000162  00000+0  23257-3 0  9994
2 60382  88.9777 297.4765 0013790 135.7158 224.5099 13.50981283 69621
QIANFAN-5               
1 60383U 24140E   25362.90052224  .00000154  00000+0  21984-3 0  9999
2 60383  88.9752 297.6027 0015271 157.3037 202.8793 13.50983320 69488
QIANFAN-6               
1 60384U 24140F   25362.92110788  .00000168  00000+0  24171-3 0  9998
2 60384  88.9779 297.3512 0013739 141.4331 218.7804 13.50983657 69686
QIANFAN-7               
1 60385U 24140G   25362.93532851  .00001093  00000+0  43749-3 0  9999
2 60385  88.9793 291.8205 0015304 356.4052   3.7030 14.27675110 72706
QIANFAN-8               
1 60386U 24140H   25362.92939934  .00000165  00000+0  23688-3 0  9991
2 60386  88.9780 297.5880 0017104 145.0472 215.1806 13.50981512 69531
